{
  "norad_id": 53183,
  "name": "STARLINK-4268",
  "history": [
    {
      "epoch": "2026-03-28T14:33:55.702080Z",
      "apogee_km": 540.7507820931651,
      "perigee_km": 538.71277795057,
      "latitude_deg": 2.3320450601419937e-05,
      "longitude_deg": -0.3971931861311952,
      "height_km": 540.5751401260887,
      "semi_major_axis_km": 6917.868780021867,
      "eccentricity": 0.0001473,
      "inclination_deg": 53.219,
      "raan_deg": 44.1098,
      "arg_perigee_deg": 87.0546,
      "mean_anomaly_deg": 273.0615,
      "mean_motion_rev_day": 15.08843798
    },
    {
      "epoch": "2026-03-29T03:17:00.133440Z",
      "apogee_km": 540.6046159229609,
      "perigee_km": 538.8267277862942,
      "latitude_deg": -2.7955026703125594e-05,
      "longitude_deg": 165.9321991121843,
      "height_km": 540.6356219844481,
      "semi_major_axis_km": 6917.852671854627,
      "eccentricity": 0.0001285,
      "inclination_deg": 53.2181,
      "raan_deg": 41.73,
      "arg_perigee_deg": 91.5508,
      "mean_anomaly_deg": 268.5631,
      "mean_motion_rev_day": 15.08849068
    },
    {
      "epoch": "2026-03-30T03:07:47.958816Z",
      "apogee_km": 540.7187505866204,
      "perigee_km": 538.7983427828603,
      "latitude_deg": 1.5200416645825018e-06,
      "longitude_deg": 162.79370340799048,
      "height_km": 540.7741756817395,
      "semi_major_axis_km": 6917.89554668474,
      "eccentricity": 0.0001388,
      "inclination_deg": 53.2183,
      "raan_deg": 37.2701,
      "arg_perigee_deg": 97.1705,
      "mean_anomaly_deg": 262.9445,
      "mean_motion_rev_day": 15.08835041
    }
  ]
}